{
    "links": {
        "self": "http://www.neowsapp.com/rest/v1/neo/3843122?api_key=iIulBulltgU6a56xZRHN4H3l9WmuAYTsLGpBGhQ2"
    },
    "id": "3843122",
    "neo_reference_id": "3843122",
    "name": "(2019 NU1)",
    "designation": "2019 NU1",
    "nasa_jpl_url": "http://ssd.jpl.nasa.gov/sbdb.cgi?sstr=3843122",
    "absolute_magnitude_h": 23.9,
    "estimated_diameter": {
        "kilometers": {
            "estimated_diameter_min": 0.04411182,
            "estimated_diameter_max": 0.0986370281
        },
        "meters": {
            "estimated_diameter_min": 44.1118199997,
            "estimated_diameter_max": 98.6370281305
        },
        "miles": {
            "estimated_diameter_min": 0.0274098057,
            "estimated_diameter_max": 0.0612901888
        },
        "feet": {
            "estimated_diameter_min": 144.7238235278,
            "estimated_diameter_max": 323.6123073718
        }
    },
    "is_potentially_hazardous_asteroid": false,
    "close_approach_data": [
        {
            "close_approach_date": "2019-06-22",
            "close_approach_date_full": "2019-Jun-22 00:46",
            "epoch_date_close_approach": 1561164360000,
            "relative_velocity": {
                "kilometers_per_second": "12.594011233",
                "kilometers_per_hour": "45338.4404387557",
                "miles_per_hour": "28171.5437270702"
            },
            "miss_distance": {
                "astronomical": "0.06290059",
                "lunar": "24.46832951",
                "kilometers": "9409794.2857433",
                "miles": "5846975.04132554"
            },
            "orbiting_body": "Earth"
        }
    ],
    "orbital_data": {
        "orbit_id": "3",
        "orbit_determination_date": "2019-07-10 05:37:01",
        "first_observation_date": "2019-07-03",
        "last_observation_date": "2019-07-10",
        "data_arc_in_days": 7,
        "observations_used": 26,
        "orbit_uncertainty": "8",
        "minimum_orbit_intersection": ".0401576",
        "jupiter_tisserand_invariant": "3.168",
        "epoch_osculation": "2458668.5",
        "eccentricity": ".6469982512108118",
        "semi_major_axis": "2.449946652733184",
        "inclination": "3.591414666864195",
        "ascending_node_longitude": "135.1973981572648",
        "orbital_period": "1400.662071354704",
        "perihelion_distance": ".8648354528550319",
        "perihelion_argument": "88.86605887540406",
        "aphelion_distance": "4.035057852611336",
        "perihelion_time": "2458622.660406909133",
        "mean_anomaly": "11.78175225145587",
        "mean_motion": ".2570213096809369",
        "equinox": "J2000",
        "orbit_class": {
            "orbit_class_type": "APO",
            "orbit_class_description": "Near-Earth asteroid orbits which cross the Earth’s orbit similar to that of 1862 Apollo",
            "orbit_class_range": "a (semi-major axis) > 1.0 AU; q (perihelion) < 1.017 AU"
        }
    },
    "is_sentry_object": false
}